{
  "type": "FeatureCollection",
  "features": [
    {
      "type": "Feature",
      "properties": {
        "norad_id": 66912,
        "name": "1998-067XY",
        "group": "last-30-days",
        "lat": 43.88908305745052,
        "lon": 122.30222289992992,
        "alt_km": 404.6853249228361,
        "timestamp": "2025-12-26T18:39:30.998743+00:00",
        "meta_object_name": "1998-067XY",
        "meta_object_id": "1998-067XY",
        "meta_epoch": "2025-12-26T12:12:45.085824",
        "meta_mean_motion": 15.52489248,
        "meta_eccentricity": 0.00038231,
        "meta_inclination": 51.6314,
        "meta_ra_of_asc_node": 73.9869,
        "meta_arg_of_pericenter": 301.1826,
        "meta_mean_anomaly": 58.8789,
        "meta_ephemeris_type": 0,
        "meta_classification_type": "U",
        "meta_norad_cat_id": 66912,
        "meta_element_set_no": 999,
        "meta_rev_at_epoch": 374,
        "meta_bstar": 0.00078444064,
        "meta_mean_motion_dot": 0.00048771,
        "meta_mean_motion_ddot": 0,
        "tle_line1": "1 66912U 98067XY  25360.50885516  .00048771  00000+0  78444-3 0  9994",
        "tle_line2": "2 66912  51.6314  73.9869 0003823 301.1826  58.8789 15.52489248  3742"
      },
      "geometry": {
        "type": "Point",
        "coordinates": [
          122.30222289992992,
          43.88908305745052
        ]
      }
    },
    {
      "type": "Feature",
      "properties": {
        "norad_id": 66913,
        "name": "2025-284A",
        "group": "last-30-days",
        "lat": 55.05098407976295,
        "lon": -81.85692952730676,
        "alt_km": 539.3410372129265,
        "timestamp": "2025-12-26T18:39:30.998756+00:00",
        "meta_object_name": "2025-284A",
        "meta_object_id": "2025-284A",
        "meta_epoch": "2025-12-23T02:34:46.438752",
        "meta_mean_motion": 15.08893564,
        "meta_eccentricity": 0.0013475,
        "meta_inclination": 80.4035,
        "meta_ra_of_asc_node": 116.7336,
        "meta_arg_of_pericenter": 259.6514,
        "meta_mean_anomaly": 100.3189,
        "meta_ephemeris_type": 0,
        "meta_classification_type": "U",
        "meta_norad_cat_id": 66913,
        "meta_element_set_no": 999,
        "meta_rev_at_epoch": 269,
        "meta_bstar": 0.00055263602,
        "meta_mean_motion_dot": 8.748e-05,
        "meta_mean_motion_ddot": 0,
        "tle_line1": "1 66913U 25284A   25357.10748193  .00008748  00000+0  55264-3 0  9992",
        "tle_line2": "2 66913  80.4035 116.7336 0013475 259.6514 100.3189 15.08893564  2694"
      },
      "geometry": {
        "type": "Point",
        "coordinates": [
          -81.85692952730676,
          55.05098407976295
        ]
      }
    },
    {
      "type": "Feature",
      "properties": {
        "norad_id": 66914,
        "name": "2025-284B",
        "group": "last-30-days",
        "lat": 74.59097303003642,
        "lon": -105.89423812776067,
        "alt_km": 502.0700031629849,
        "timestamp": "2025-12-26T18:39:30.998768+00:00",
        "meta_object_name": "2025-284B",
        "meta_object_id": "2025-284B",
        "meta_epoch": "2025-12-16T06:51:11.417184",
        "meta_mean_motion": 15.18985981,
        "meta_eccentricity": 0.00081793,
        "meta_inclination": 80.4045,
        "meta_ra_of_asc_node": 125.2713,
        "meta_arg_of_pericenter": 234.9626,
        "meta_mean_anomaly": 125.0834,
        "meta_ephemeris_type": 0,
        "meta_classification_type": "U",
        "meta_norad_cat_id": 66914,
        "meta_element_set_no": 999,
        "meta_rev_at_epoch": 166,
        "meta_bstar": 0.00038444995,
        "meta_mean_motion_dot": 8.068e-05,
        "meta_mean_motion_ddot": 0,
        "tle_line1": "1 66914U 25284B   25350.28554881  .00008068  00000+0  38445-3 0  9991",
        "tle_line2": "2 66914  80.4045 125.2713 0008179 234.9626 125.0834 15.18985981  1668"
      },
      "geometry": {
        "type": "Point",
        "coordinates": [
          -105.89423812776067,
          74.59097303003642
        ]
      }
    },
    {
      "type": "Feature",
      "properties": {
        "norad_id": 66915,
        "name": "HULIANWANG DIGUI-105",
        "group": "last-30-days",
        "lat": -46.063245245102,
        "lon": -59.28675659546793,
        "alt_km": 888.8834159854187,
        "timestamp": "2025-12-26T18:39:30.998778+00:00",
        "meta_object_name": "HULIANWANG DIGUI-105",
        "meta_object_id": "2025-285A",
        "meta_epoch": "2025-12-26T15:45:37.229760",
        "meta_mean_motion": 14.02426277,
        "meta_eccentricity": 0.00081074,
        "meta_inclination": 50.0058,
        "meta_ra_of_asc_node": 60.6056,
        "meta_arg_of_pericenter": 331.255,
        "meta_mean_anomaly": 28.7907,
        "meta_ephemeris_type": 0,
        "meta_classification_type": "U",
        "meta_norad_cat_id": 66915,
        "meta_element_set_no": 999,
        "meta_rev_at_epoch": 286,
        "meta_bstar": 0.00012781645,
        "meta_mean_motion_dot": 4.7e-07,
        "meta_mean_motion_ddot": 0,
        "tle_line1": "1 66915U 25285A   25360.65668090  .00000047  00000+0  12782-3 0  9998",
        "tle_line2": "2 66915  50.0058  60.6056 0008107 331.2550  28.7907 14.02426277  2869"
      },
      "geometry": {
        "type": "Point",
        "coordinates": [
          -59.28675659546793,
          -46.063245245102
        ]
      }
    },
    {
      "type": "Feature",
      "properties": {
        "norad_id": 66916,
        "name": "HULIANWANG DIGUI-106",
        "group": "last-30-days",
        "lat": -49.677073572988526,
        "lon": -38.408915160735155,
        "alt_km": 887.0507106339091,
        "timestamp": "2025-12-26T18:39:30.998788+00:00",
        "meta_object_name": "HULIANWANG DIGUI-106",
        "meta_object_id": "2025-285B",
        "meta_epoch": "2025-12-26T13:58:55.058016",
        "meta_mean_motion": 14.02527126,
        "meta_eccentricity": 0.00067343,
        "meta_inclination": 50.0066,
        "meta_ra_of_asc_node": 60.8825,
        "meta_arg_of_pericenter": 323.4793,
        "meta_mean_anomaly": 36.5651,
        "meta_ephemeris_type": 0,
        "meta_classification_type": "U",
        "meta_norad_cat_id": 66916,
        "meta_element_set_no": 999,
        "meta_rev_at_epoch": 285,
        "meta_bstar": 0.0001225532,
        "meta_mean_motion_dot": 3.9e-07,
        "meta_mean_motion_ddot": 0,
        "tle_line1": "1 66916U 25285B   25360.58258169  .00000039  00000+0  12255-3 0  9999",
        "tle_line2": "2 66916  50.0066  60.8825 0006734 323.4793  36.5651 14.02527126  2858"
      },
      "geometry": {
        "type": "Point",
        "coordinates": [
          -38.408915160735155,
          -49.677073572988526
        ]
      }
    },
    {
      "type": "Feature",
      "properties": {
        "norad_id": 66917,
        "name": "HULIANWANG DIGUI-107",
        "group": "last-30-days",
        "lat": -49.80702203408212,
        "lon": -23.524829203306506,
        "alt_km": 884.3812635121521,
        "timestamp": "2025-12-26T18:39:30.998798+00:00",
        "meta_object_name": "HULIANWANG DIGUI-107",
        "meta_object_id": "2025-285C",
        "meta_epoch": "2025-12-26T08:48:35.166816",
        "meta_mean_motion": 14.03063646,
        "meta_eccentricity": 0.00073258,
        "meta_inclination": 50.0019,
        "meta_ra_of_asc_node": 61.732,
        "meta_arg_of_pericenter": 324.4987,
        "meta_mean_anomaly": 35.5429,
        "meta_ephemeris_type": 0,
        "meta_classification_type": "U",
        "meta_norad_cat_id": 66917,
        "meta_element_set_no": 999,
        "meta_rev_at_epoch": 282,
        "meta_bstar": 0.0001094519,
        "meta_mean_motion_dot": 2e-07,
        "meta_mean_motion_ddot": 0,
        "tle_line1": "1 66917U 25285C   25360.36707369  .00000020  00000+0  10945-3 0  9991",
        "tle_line2": "2 66917  50.0019  61.7320 0007325 324.4987  35.5429 14.03063646  2822"
      },
      "geometry": {
        "type": "Point",
        "coordinates": [
          -23.524829203306506,
          -49.80702203408212
        ]
      }
    },
    {
      "type": "Feature",
      "properties": {
        "norad_id": 66918,
        "name": "HULIANWANG DIGUI-108",
        "group": "last-30-days",
        "lat": -49.56042693376656,
        "lon": -19.994589972599936,
        "alt_km": 885.4996480835816,
        "timestamp": "2025-12-26T18:39:30.998810+00:00",
        "meta_object_name": "HULIANWANG DIGUI-108",
        "meta_object_id": "2025-285D",
        "meta_epoch": "2025-12-26T15:38:09.645792",
        "meta_mean_motion": 14.02825278,
        "meta_eccentricity": 0.00066851,
        "meta_inclination": 50.0054,
        "meta_ra_of_asc_node": 60.5774,
        "meta_arg_of_pericenter": 327.984,
        "meta_mean_anomaly": 32.0657,
        "meta_ephemeris_type": 0,
        "meta_classification_type": "U",
        "meta_norad_cat_id": 66918,
        "meta_element_set_no": 999,
        "meta_rev_at_epoch": 286,
        "meta_bstar": 0.00012939309,
        "meta_mean_motion_dot": 5e-07,
        "meta_mean_motion_ddot": 0,
        "tle_line1": "1 66918U 25285D   25360.65150053  .00000050  00000+0  12939-3 0  9994",
        "tle_line2": "2 66918  50.0054  60.5774 0006685 327.9840  32.0657 14.02825278  2861"
      },
      "geometry": {
        "type": "Point",
        "coordinates": [
          -19.994589972599936,
          -49.56042693376656
        ]
      }
    }
  ]
}